{"type": "FeatureCollection", "features": [ {"type": "Feature", "properties": {"norad_id": 54031, "name": "COSMOS 2559 (707K)", "group": "gnss", "lat": -8.907637967245341, "lon": -43.6913046669204, "alt_km": 19158.842951277842, "timestamp": "2025-12-27T03:58:44.399140+00:00", "meta": {"OBJECT_NAME": "COSMOS 2559 (707K)", "OBJECT_ID": "2022-130A", "EPOCH": "2025-12-26T05:45:52.034112", "MEAN_MOTION": 2.13101192, "ECCENTRICITY": 0.0011465, "INCLINATION": 64.3745, "RA_OF_ASC_NODE": 320.6663, "ARG_OF_PERICENTER": 191.5639, "MEAN_ANOMALY": 168.4144, "EPHEMERIS_TYPE": 0, "CLASSIFICATION_TYPE": "U", "NORAD_CAT_ID": 54031, "ELEMENT_SET_NO": 999, "REV_AT_EPOCH": 2500, "BSTAR": 0, "MEAN_MOTION_DOT": -3.6e-07, "MEAN_MOTION_DDOT": 0}, "tle": {"line1": "1 54031U 22130A   25360.24018558 -.00000036  00000+0  00000+0 0  9998", "line2": "2 54031  64.3745 320.6663 0011465 191.5639 168.4144  2.13101192 25006"}}, "geometry": {"type": "Point", "coordinates": [-43.6913046669204, -8.907637967245341]}}, {"type": "Feature", "properties": {"norad_id": 54377, "name": "COSMOS 2564 (761)", "group": "gnss", "lat": 58.41316015055127, "lon": -31.766007804864987, "alt_km": 19124.925110609453, "timestamp": "2025-12-27T03:58:44.399150+00:00", "meta": {"OBJECT_NAME": "COSMOS 2564 (761)", "OBJECT_ID": "2022-161A", "EPOCH": "2025-12-26T13:17:06.645696", "MEAN_MOTION": 2.13101966, "ECCENTRICITY": 0.0008542, "INCLINATION": 64.7391, "RA_OF_ASC_NODE": 198.4399, "ARG_OF_PERICENTER": 203.4859, "MEAN_ANOMALY": 156.5301, "EPHEMERIS_TYPE": 0, "CLASSIFICATION_TYPE": "U", "NORAD_CAT_ID": 54377, "ELEMENT_SET_NO": 999, "REV_AT_EPOCH": 2395, "BSTAR": 0, "MEAN_MOTION_DOT": 1.15e-06, "MEAN_MOTION_DDOT": 0}, "tle": {"line1": "1 54377U 22161A   25360.55354914  .00000115  00000+0  00000+0 0  9995", "line2": "2 54377  64.7391 198.4399 0008542 203.4859 156.5301  2.13101966 23950"}}, "geometry": {"type": "Point", "coordinates": [-31.766007804864987, 58.41316015055127]}}, {"type": "Feature", "properties": {"norad_id": 55268, "name": "GPS BIII-6  (PRN 28)", "group": "gnss", "lat": 16.93754512085313, "lon": -36.99972756312742, "alt_km": 20190.444387487398, "timestamp": "2025-12-27T03:58:44.399161+00:00", "meta": {"OBJECT_NAME": "GPS BIII-6  (PRN 28)", "OBJECT_ID": "2023-009A", "EPOCH": "2025-12-22T10:59:58.065216", "MEAN_MOTION": 2.00554901, "ECCENTRICITY": 0.00037047, "INCLINATION": 55.1065, "RA_OF_ASC_NODE": 155.4638, "ARG_OF_PERICENTER": 355.7912, "MEAN_ANOMALY": 4.4255, "EPHEMERIS_TYPE": 0, "CLASSIFICATION_TYPE": "U", "NORAD_CAT_ID": 55268, "ELEMENT_SET_NO": 999, "REV_AT_EPOCH": 2170, "BSTAR": 0, "MEAN_MOTION_DOT": 7.4e-07, "MEAN_MOTION_DDOT": 0}, "tle": {"line1": "1 55268U 23009A   25356.45831094  .00000074  00000+0  00000+0 0  9994", "line2": "2 55268  55.1065 155.4638 0003704 355.7912   4.4255  2.00554901 21704"}}, "geometry": {"type": "Point", "coordinates": [-36.99972756312742, 16.93754512085313]}}, {"type": "Feature", "properties": {"norad_id": 56564, "name": "BEIDOU-3 G4 (C62)", "group": "gnss", "lat": 0.15549466791299904, "lon": -44.35920700570214, "alt_km": 35794.63997435772, "timestamp": "2025-12-27T03:58:44.399171+00:00", "meta": {"OBJECT_NAME": "BEIDOU-3 G4 (C62)", "OBJECT_ID": "2023-066A", "EPOCH": "2025-12-26T19:36:38.016288", "MEAN_MOTION": 1.00270588, "ECCENTRICITY": 0.00025, "INCLINATION": 0.7856, "RA_OF_ASC_NODE": 303.1584, "ARG_OF_PERICENTER": 230.8963, "MEAN_ANOMALY": 15.7097, "EPHEMERIS_TYPE": 0, "CLASSIFICATION_TYPE": "U", "NORAD_CAT_ID": 56564, "ELEMENT_SET_NO": 999, "REV_AT_EPOCH": 966, "BSTAR": 0, "MEAN_MOTION_DOT": -8.9e-07, "MEAN_MOTION_DDOT": 0}, "tle": {"line1": "1 56564U 23066A   25360.81710667 -.00000089  00000+0  00000+0 0  9991", "line2": "2 56564   0.7856 303.1584 0002500 230.8963  15.7097  1.00270588  9667"}}, "geometry": {"type": "Point", "coordinates": [-44.35920700570214, 0.15549466791299904]}}, {"type": "Feature", "properties": {"norad_id": 56759, "name": "NVS-01 (IRNSS-1J)", "group": "gnss", "lat": 1.4278574638995418, "lon": -74.86596176361137, "alt_km": 35750.048404241155, "timestamp": "2025-12-27T03:58:44.399184+00:00", "meta": {"OBJECT_NAME": "NVS-01 (IRNSS-1J)", "OBJECT_ID": "2023-076A", "EPOCH": "2025-12-26T13:30:21.648384", "MEAN_MOTION": 1.00270116, "ECCENTRICITY": 0.000896, "INCLINATION": 2.5859, "RA_OF_ASC_NODE": 251.1085, "ARG_OF_PERICENTER": 17.6895, "MEAN_ANOMALY": 158.6579, "EPHEMERIS_TYPE": 0, "CLASSIFICATION_TYPE": "U", "NORAD_CAT_ID": 56759, "ELEMENT_SET_NO": 999, "REV_AT_EPOCH": 938, "BSTAR": 0, "MEAN_MOTION_DOT": -3.12e-06, "MEAN_MOTION_DDOT": 0}, "tle": {"line1": "1 56759U 23076A   25360.56275056 -.00000312  00000+0  00000+0 0  9997", "line2": "2 56759   2.5859 251.1085 0008960  17.6895 158.6579  1.00270116  9383"}}, "geometry": {"type": "Point", "coordinates": [-74.86596176361137, 1.4278574638995418]}}, {"type": "Feature", "properties": {"norad_id": 57517, "name": "COSMOS 2569 (703K)", "group": "gnss", "lat": 63.60101194560976, "lon": -170.01143175817774, "alt_km": 19150.708961043616, "timestamp": "2025-12-27T03:58:44.399196+00:00", "meta": {"OBJECT_NAME": "COSMOS 2569 (703K)", "OBJECT_ID": "2023-114A", "EPOCH": "2025-12-26T02:20:34.905408", "MEAN_MOTION": 2.13103952, "ECCENTRICITY": 0.00110098, "INCLINATION": 65.2009, "RA_OF_ASC_NODE": 78.4621, "ARG_OF_PERICENTER": 287.2132, "MEAN_ANOMALY": 72.7147, "EPHEMERIS_TYPE": 0, "CLASSIFICATION_TYPE": "U", "NORAD_CAT_ID": 57517, "ELEMENT_SET_NO": 999, "REV_AT_EPOCH": 1857, "BSTAR": 0, "MEAN_MOTION_DOT": -5e-08, "MEAN_MOTION_DDOT": 0}, "tle": {"line1": "1 57517U 23114A   25360.09762622 -.00000005  00000+0  00000+0 0  9990", "line2": "2 57517  65.2009  78.4621 0011009 287.2132  72.7147  2.13103952 18578"}}, "geometry": {"type": "Point", "coordinates": [-170.01143175817774, 63.60101194560976]}}, {"type": "Feature", "properties": {"norad_id": 58654, "name": "BEIDOU-3 M28 (C50)", "group": "gnss", "lat": 21.127242967786557, "lon": -127.2076564167137, "alt_km": 21530.11865607515, "timestamp": "2025-12-27T03:58:44.399206+00:00", "meta": {"OBJECT_NAME": "BEIDOU-3 M28 (C50)", "OBJECT_ID": "2023-207A", "EPOCH": "2025-12-26T09:34:30.666720", "MEAN_MOTION": 1.86229622, "ECCENTRICITY": 0.0002968, "INCLINATION": 55.596, "RA_OF_ASC_NODE": 68.1388, "ARG_OF_PERICENTER": 276.5456, "MEAN_ANOMALY": 83.472, "EPHEMERIS_TYPE": 0, "CLASSIFICATION_TYPE": "U", "NORAD_CAT_ID": 58654, "ELEMENT_SET_NO": 999, "REV_AT_EPOCH": 1362, "BSTAR": 0, "MEAN_MOTION_DOT": -3.3e-07, "MEAN_MOTION_DDOT": 0}, "tle": {"line1": "1 58654U 23207A   25360.39896605 -.00000033  00000+0  00000+0 0  9999", "line2": "2 58654  55.5960  68.1388 0002968 276.5456  83.4720  1.86229622 13628"}}, "geometry": {"type": "Point", "coordinates": [-127.2076564167137, 21.127242967786557]}}, {"type": "Feature", "properties": {"norad_id": 58655, "name": "BEIDOU-3 M26 (C48)", "group": "gnss", "lat": -50.91148783682002, "lon": 10.711428058127227, "alt_km": 21523.11673085063, "timestamp": "2025-12-27T03:58:44.399217+00:00", "meta": {"OBJECT_NAME": "BEIDOU-3 M26 (C48)", "OBJECT_ID": "2023-207B", "EPOCH": "2025-12-26T17:36:09.851904", "MEAN_MOTION": 1.86231163, "ECCENTRICITY": 0.0004276, "INCLINATION": 55.5984, "RA_OF_ASC_NODE": 68.1137, "ARG_OF_PERICENTER": 261.988, "MEAN_ANOMALY": 98.0139, "EPHEMERIS_TYPE": 0, "CLASSIFICATION_TYPE": "U", "NORAD_CAT_ID": 58655, "ELEMENT_SET_NO": 999, "REV_AT_EPOCH": 1361, "BSTAR": 0, "MEAN_MOTION_DOT": -3.4e-07, "MEAN_MOTION_DDOT": 0}, "tle": {"line1": "1 58655U 23207B   25360.73344736 -.00000034  00000+0  00000+0 0  9992", "line2": "2 58655  55.5984  68.1137 0004276 261.9880  98.0139  1.86231163 13618"}}, "geometry": {"type": "Point", "coordinates": [10.711428058127227, -50.91148783682002]}}, {"type": "Feature", "properties": {"norad_id": 59598, "name": "GSAT0225 (GALILEO 29)", "group": "gnss", "lat": 37.66586289761046, "lon": -106.78952505252686, "alt_km": 23214.240529858136, "timestamp": "2025-12-27T03:58:44.399227+00:00", "meta": {"OBJECT_NAME": "GSAT0225 (GALILEO 29)", "OBJECT_ID": "2024-079A", "EPOCH": "2025-12-25T18:42:53.226144", "MEAN_MOTION": 1.70474814, "ECCENTRICITY": 0.00021774, "INCLINATION": 55.0084, "RA_OF_ASC_NODE": 105.9312, "ARG_OF_PERICENTER": 191.4017, "MEAN_ANOMALY": 169.7242, "EPHEMERIS_TYPE": 0, "CLASSIFICATION_TYPE": "U", "NORAD_CAT_ID": 59598, "ELEMENT_SET_NO": 999, "REV_AT_EPOCH": 1036, "BSTAR": 0, "MEAN_MOTION_DOT": 1.7e-07, "MEAN_MOTION_DDOT": 0}, "tle": {"line1": "1 59598U 24079A   25359.77978271  .00000017  00000+0  00000+0 0  9996", "line2": "2 59598  55.0084 105.9312 0002177 191.4017 169.7242  1.70474814 10368"}}, "geometry": {"type": "Point", "coordinates": [-106.78952505252686, 37.66586289761046]}}, {"type": "Feature", "properties": {"norad_id": 59600, "name": "GSAT0227 (GALILEO 30)", "group": "gnss", "lat": 15.621646312015734, "lon": 117.17045949267848, "alt_km": 23221.477663109268, "timestamp": "2025-12-27T03:58:44.399237+00:00", "meta": {"OBJECT_NAME": "GSAT0227 (GALILEO 30)", "OBJECT_ID": "2024-079C", "EPOCH": "2025-12-21T20:31:35.455872", "MEAN_MOTION": 1.70474868, "ECCENTRICITY": 0.00028355, "INCLINATION": 55.0019, "RA_OF_ASC_NODE": 106.0394, "ARG_OF_PERICENTER": 117.3615, "MEAN_ANOMALY": 242.6419, "EPHEMERIS_TYPE": 0, "CLASSIFICATION_TYPE": "U", "NORAD_CAT_ID": 59600, "ELEMENT_SET_NO": 999, "REV_AT_EPOCH": 1034, "BSTAR": 0, "MEAN_MOTION_DOT": 4e-08, "MEAN_MOTION_DDOT": 0}, "tle": {"line1": "1 59600U 24079C   25355.85527148  .00000004  00000+0  00000+0 0  9994", "line2": "2 59600  55.0019 106.0394 0002835 117.3615 242.6419  1.70474868 10348"}}, "geometry": {"type": "Point", "coordinates": [117.17045949267848, 15.621646312015734]}}]}